      2.10          N: GNSS NAV DATA                        RINEX VERSION / TYPE
fic2rin                                 08/14/2018 00:07:11 PGM / RUN BY / DATE
                                                            END OF HEADER
 7 18  8 13 16  0  0.0 1.423819921911e-04-6.480149750132e-12 0.000000000000e+00
    2.200000000000e+01-8.625000000000e+00 5.070211194648e-09 7.396239570152e-01
   -3.557652235031e-07 1.202811894473e-02 4.358589649200e-06 5.153636550903e+03
    1.440000000000e+05-1.937150955200e-07-9.716893656423e-01 2.011656761169e-07
    9.575781529394e-01 2.949375000000e+02-2.501949753896e+00-8.543570159705e-09
   -2.000083311498e-10 1.000000000000e+00 2.014000000000e+03 0.000000000000e+00
    2.400000000000e+00 0.000000000000e+00-1.117587089539e-08 2.200000000000e+01
    1.368060000000e+05 4.000000000000e+00
 6 18  8 13 16  0  0.0 3.766687586904e-04-4.433786671143e-12 0.000000000000e+00
    4.700000000000e+01-2.303125000000e+01 4.833415616876e-09 1.594595767143e+00
   -1.225620508194e-06 9.954937268049e-04 1.931563019753e-06 5.153674362183e+03
    1.440000000000e+05-5.215406417847e-08 2.149533805328e+00-2.048909664154e-08
    9.717552715647e-01 3.448750000000e+02-1.060940637145e+00-8.521426380184e-09
   -1.778645516296e-10 1.000000000000e+00 2.014000000000e+03 0.000000000000e+00
    2.400000000000e+00 0.000000000000e+00 4.656612873077e-09 4.700000000000e+01
    1.368060000000e+05 4.000000000000e+00
 4 18  8 13 16  0  0.0 8.852686733007e-05 3.751665644813e-12 0.000000000000e+00
    1.010000000000e+02-5.031250000000e+00 5.209145553250e-09-1.475434624952e+00
   -2.756714820862e-07 9.783778921701e-03 1.197122037411e-05 5.153722370148e+03
    1.440000000000e+05 2.365559339523e-07 8.675865658915e-02 6.705522537231e-08
    9.786242176153e-01 1.541250000000e+02 9.323157213663e-01-7.642461196328e-09
   -3.039412318009e-10 1.000000000000e+00 2.014000000000e+03 0.000000000000e+00
    3.400000000000e+00 6.300000000000e+01-1.955777406693e-08 1.010000000000e+02
    1.368060000000e+05 4.000000000000e+00
21 18  8 13 16  0  0.0-3.531728871167e-04 5.684341886081e-12 0.000000000000e+00
    1.800000000000e+01-1.975000000000e+01 5.569874864788e-09-3.819017983028e-01
   -9.294599294662e-07 2.435008564498e-02 2.218410372734e-06 5.153647310257e+03
    1.440000000000e+05-2.570450305939e-07 2.101452111927e+00 2.793967723846e-08
    9.447016255404e-01 3.305625000000e+02-1.536443636805e+00-9.362532844216e-09
   -2.535819912792e-11 1.000000000000e+00 2.014000000000e+03 0.000000000000e+00
    2.400000000000e+00 0.000000000000e+00-1.024454832077e-08 1.800000000000e+01
    1.368060000000e+05 4.000000000000e+00
32 18  8 13 16  0  0.0-4.524667747319e-04 9.549694368616e-12 0.000000000000e+00
    2.400000000000e+01 5.993750000000e+01 4.477686513616e-09-1.988480792641e+00
    3.209337592125e-06 2.287766197696e-03 1.000426709652e-05 5.153693447113e+03
    1.440000000000e+05-1.210719347000e-07-2.044205859962e+00-8.568167686462e-08
    9.568324406889e-01 1.876875000000e+02-2.524938929270e+00-7.952116951876e-09
    5.175215568501e-10 1.000000000000e+00 2.014000000000e+03 0.000000000000e+00
    2.400000000000e+00 0.000000000000e+00 4.656612873077e-10 2.400000000000e+01
    1.368060000000e+05 4.000000000000e+00
26 18  8 13 16  0  0.0-5.290471017361e-05 1.182343112305e-11 0.000000000000e+00
    2.300000000000e+01-1.384375000000e+01 4.503759028213e-09-8.151938547933e-01
   -8.214265108109e-07 2.823640243150e-03 1.166202127934e-05 5.153704195023e+03
    1.440000000000e+05 5.774199962616e-08 3.814895509139e-02-2.607703208923e-08
    9.552691269306e-01 1.485312500000e+02 9.271704000259e-02-7.997833141853e-09
   -3.553719455251e-10 1.000000000000e+00 2.014000000000e+03 0.000000000000e+00
    2.400000000000e+00 0.000000000000e+00 7.450580596924e-09 2.300000000000e+01
    1.368060000000e+05 4.000000000000e+00
16 18  8 13 16  0  0.0 1.373887062073e-05-1.591615728103e-12 0.000000000000e+00
    1.500000000000e+01 4.718750000000e+00 3.759442310148e-09-1.734989061578e+00
   -1.117587089539e-07 9.977302397601e-03 1.217052340508e-05 5.153680501938e+03
    1.440000000000e+05 1.210719347000e-07 1.410642310914e-01-8.754432201385e-08
    9.866318025463e-01 1.541562500000e+02 5.240397147118e-01-7.525313459511e-09
   -1.900079145923e-10 1.000000000000e+00 2.014000000000e+03 0.000000000000e+00
    2.400000000000e+00 0.000000000000e+00-1.071020960808e-08 1.500000000000e+01
    1.368060000000e+05 4.000000000000e+00
30 18  8 13 16  0  0.0 3.814278170466e-05-5.002220859751e-12 0.000000000000e+00
    1.500000000000e+01-1.378125000000e+01 5.355223066536e-09 7.397423187911e-01
   -6.631016731262e-07 3.618830116466e-03 4.073604941368e-06 5.153692407608e+03
    1.440000000000e+05 2.793967723846e-08-9.392401310301e-01 1.341104507446e-07
    9.431700936773e-01 2.909687500000e+02-2.993580187751e+00-8.632502435519e-09
   -1.064330047904e-10 1.000000000000e+00 2.014000000000e+03 0.000000000000e+00
    2.400000000000e+00 0.000000000000e+00 3.725290298462e-09 1.500000000000e+01
    1.368060000000e+05 4.000000000000e+00
15 18  8 13 16  0  0.0-3.485945053399e-04 9.094947017729e-13 0.000000000000e+00
    6.700000000000e+01 4.546875000000e+01 5.066639617306e-09 2.681308392171e+00
    2.266839146614e-06 1.049044122919e-02 1.067295670509e-05 5.153799020767e+03
    1.440000000000e+05-5.587935447693e-09-2.122282832136e+00-1.844018697739e-07
    9.280791018312e-01 1.564375000000e+02 6.947007447088e-01-8.184626636837e-09
    4.993065124061e-10 1.000000000000e+00 2.014000000000e+03 0.000000000000e+00
    2.400000000000e+00 0.000000000000e+00-1.071020960808e-08 6.700000000000e+01
    1.368060000000e+05 4.000000000000e+00
12 18  8 13 16  0  0.0 3.143339417875e-04-2.614797267597e-12 0.000000000000e+00
    1.100000000000e+02-1.950000000000e+01 3.855874898381e-09 1.918801169199e-01
   -1.184642314911e-06 7.087551173754e-03 1.224130392075e-05 5.153544797897e+03
    1.440000000000e+05-1.005828380585e-07 1.221661368471e-01 1.210719347000e-07
    9.862200949741e-01 1.635312500000e+02 1.011793532690e+00-7.723536001990e-09
   -3.107272287506e-10 1.000000000000e+00 2.014000000000e+03 0.000000000000e+00
    3.400000000000e+00 0.000000000000e+00-1.257285475731e-08 1.100000000000e+02
    1.368060000000e+05 4.000000000000e+00
 9 18  8 13 16  0  0.0 5.111112259328e-04-1.364242052659e-12 0.000000000000e+00
    9.900000000000e+01 5.250000000000e+01 4.634478758928e-09-2.371388897180e+00
    2.674758434296e-06 9.283557301387e-04 1.079030334949e-05 5.153567308426e+03
    1.440000000000e+05 9.872019290924e-08-2.049552708508e+00 3.725290298462e-09
    9.524831194080e-01 1.681875000000e+02 1.785818178038e+00-8.078907947515e-09
    5.043067206849e-10 1.000000000000e+00 2.014000000000e+03 0.000000000000e+00
    3.400000000000e+00 0.000000000000e+00 9.313225746155e-10 9.900000000000e+01
    1.368060000000e+05 4.000000000000e+00
31 18  8 13 16  0  0.0 1.009297557175e-04-2.614797267597e-12 0.000000000000e+00
    1.900000000000e+01-2.068750000000e+01 4.888060750208e-09 5.520629960054e-01
   -9.778887033463e-07 8.810585364699e-03 4.094094038010e-06 5.153708801270e+03
    1.440000000000e+05 1.806765794754e-07-9.588545080019e-01 5.587935447693e-09
    9.622155930103e-01 2.986875000000e+02-1.208544245176e-01-8.476067347941e-09
   -1.389343586023e-10 1.000000000000e+00 2.014000000000e+03 0.000000000000e+00
    2.400000000000e+00 0.000000000000e+00-1.350417733192e-08 1.900000000000e+01
    1.368060000000e+05 4.000000000000e+00
29 18  8 13 16  0  0.0 3.966963849962e-04-7.048583938740e-12 0.000000000000e+00
    1.500000000000e+01 1.017500000000e+02 4.138743823864e-09-2.030381487459e+00
    5.407258868217e-06 8.301119087264e-04 7.718801498413e-06 5.153653989792e+03
    1.440000000000e+05-5.774199962616e-08 1.166423366558e+00 1.676380634308e-08
    9.842483110814e-01 2.450000000000e+02 1.502864281884e+00-7.969974838586e-09
    5.007351433429e-10 1.000000000000e+00 2.014000000000e+03 0.000000000000e+00
    2.400000000000e+00 0.000000000000e+00-1.024454832077e-08 1.500000000000e+01
    1.368060000000e+05 4.000000000000e+00
22 18  8 13 16  0  0.0-4.880279302597e-04-1.148237060988e-11 0.000000000000e+00
    8.000000000000e+01-1.088750000000e+02 5.116284542359e-09 2.847059991979e+00
   -5.604699254036e-06 7.186646456830e-03 1.083873212337e-05 5.153753025055e+03
    1.440000000000e+05 1.639127731323e-07 3.138069339744e+00-3.725290298462e-09
    9.260369705969e-01 1.467187500000e+02-1.494857287972e+00-8.301774373654e-09
   -4.475186409477e-10 1.000000000000e+00 2.014000000000e+03 0.000000000000e+00
    2.400000000000e+00 0.000000000000e+00-1.816079020500e-08 8.000000000000e+01
    1.368060000000e+05 4.000000000000e+00
25 18  8 13 16  0  0.0-6.310492753983e-04-5.798028723802e-12 0.000000000000e+00
    7.400000000000e+01-1.668750000000e+01 4.130172038244e-09-2.909795071616e-01
   -7.841736078262e-07 7.448359392583e-03 1.179240643978e-05 5.153612895966e+03
    1.440000000000e+05-2.421438694000e-08 6.148542721770e-02 1.415610313416e-07
    9.737979835776e-01 1.653125000000e+02 8.701611349383e-01-7.911758127912e-09
   -3.385855320179e-10 1.000000000000e+00 2.014000000000e+03 0.000000000000e+00
    2.400000000000e+00 0.000000000000e+00 5.587935447693e-09 7.400000000000e+01
    1.368060000000e+05 4.000000000000e+00
23 18  8 13 16  0  0.0-2.128747291863e-04 6.821210263297e-13 0.000000000000e+00
    6.900000000000e+01 5.559375000000e+01 4.872702967637e-09 2.219098371726e+00
    2.630054950714e-06 1.264238357544e-02 1.113116741180e-05 5.153751222610e+03
    1.440000000000e+05-1.117587089539e-07-2.051927358096e+00-1.844018697739e-07
    9.433031065779e-01 1.545000000000e+02-2.334306470811e+00-8.128910030303e-09
    5.468084910542e-10 1.000000000000e+00 2.014000000000e+03 0.000000000000e+00
    2.400000000000e+00 0.000000000000e+00-2.002343535423e-08 6.900000000000e+01
    1.368060000000e+05 4.000000000000e+00
